[{"OBJECT_NAME":"STARLINK-1364","OBJECT_ID":"2020-025BL","EPOCH":"2026-03-09T22:42:39.507840","MEAN_MOTION":15.49541195,"ECCENTRICITY":0.00079481,"INCLINATION":53.0507,"RA_OF_ASC_NODE":61.9794,"ARG_OF_PERICENTER":58.2992,"MEAN_ANOMALY":301.8789,"EPHEMERIS_TYPE":0,"CLASSIFICATION_TYPE":"U","NORAD_CAT_ID":45589,"ELEMENT_SET_NO":999,"REV_AT_EPOCH":32573,"BSTAR":0.001962035,"MEAN_MOTION_DOT":0.00111268,"MEAN_MOTION_DDOT":0},{"OBJECT_NAME":"COSMOS 2251 DEB","OBJECT_ID":"1993-036AUE","EPOCH":"2026-03-08T22:06:30.884256","MEAN_MOTION":15.42946288,"ECCENTRICITY":0.00344361,"INCLINATION":73.9832,"RA_OF_ASC_NODE":267.6989,"ARG_OF_PERICENTER":14.478,"MEAN_ANOMALY":345.7407,"EPHEMERIS_TYPE":0,"CLASSIFICATION_TYPE":"U","NORAD_CAT_ID":35891,"ELEMENT_SET_NO":999,"REV_AT_EPOCH":68545,"BSTAR":0.0016060523,"MEAN_MOTION_DOT":0.00072861,"MEAN_MOTION_DDOT":0}]
